[{"OBJECT_NAME":"STARLINK-31319","OBJECT_ID":"2024-068C","EPOCH":"2025-08-06T13:35:43.122912","MEAN_MOTION":15.27572125,"ECCENTRICITY":6.302e-5,"INCLINATION":43.0004,"RA_OF_ASC_NODE":165.8637,"ARG_OF_PERICENTER":292.366,"MEAN_ANOMALY":67.7125,"EPHEMERIS_TYPE":0,"CLASSIFICATION_TYPE":"U","NORAD_CAT_ID":59457,"ELEMENT_SET_NO":999,"REV_AT_EPOCH":7566,"BSTAR":-2.3729964e-5,"MEAN_MOTION_DOT":-9.15e-6,"MEAN_MOTION_DDOT":0},{"OBJECT_NAME":"STARLINK-31625","OBJECT_ID":"2024-068D","EPOCH":"2025-08-06T13:55:22.049184","MEAN_MOTION":15.27588786,"ECCENTRICITY":0.0001246,"INCLINATION":43.0024,"RA_OF_ASC_NODE":169.4202,"ARG_OF_PERICENTER":271.0094,"MEAN_ANOMALY":89.0615,"EPHEMERIS_TYPE":0,"CLASSIFICATION_TYPE":"U","NORAD_CAT_ID":59458,"ELEMENT_SET_NO":999,"REV_AT_EPOCH":7562,"BSTAR":2.5205201e-5,"MEAN_MOTION_DOT":4.32e-6,"MEAN_MOTION_DDOT":0},{"OBJECT_NAME":"STARLINK-31631","OBJECT_ID":"2024-068E","EPOCH":"2025-08-06T13:15:21.400128","MEAN_MOTION":15.27576409,"ECCENTRICITY":9.479e-5,"INCLINATION":42.9983,"RA_OF_ASC_NODE":165.7499,"ARG_OF_PERICENTER":252.6741,"MEAN_ANOMALY":107.4007,"EPHEMERIS_TYPE":0,"CLASSIFICATION_TYPE":"U","NORAD_CAT_ID":59459,"ELEMENT_SET_NO":999,"REV_AT_EPOCH":7566,"BSTAR":-8.87254e-6,"MEAN_MOTION_DOT":-5.06e-6,"MEAN_MOTION_DDOT":0},{"OBJECT_NAME":"STARLINK-31620","OBJECT_ID":"2024-068F","EPOCH":"2025-08-06T21:37:35.868576","MEAN_MOTION":15.27577275,"ECCENTRICITY":0.00010827,"INCLINATION":43.0026,"RA_OF_ASC_NODE":164.0725,"ARG_OF_PERICENTER":276.1802,"MEAN_ANOMALY":83.8927,"EPHEMERIS_TYPE":0,"CLASSIFICATION_TYPE":"U","NORAD_CAT_ID":59460,"ELEMENT_SET_NO":999,"REV_AT_EPOCH":7571,"BSTAR":1.2159249e-5,"MEAN_MOTION_DOT":7.3e-7,"MEAN_MOTION_DDOT":0},{"OBJECT_NAME":"STARLINK-31511","OBJECT_ID":"2024-068H","EPOCH":"2025-08-06T14:04:37.022304","MEAN_MOTION":15.27574878,"ECCENTRICITY":0.00012881,"INCLINATION":43.0021,"RA_OF_ASC_NODE":169.4712,"ARG_OF_PERICENTER":283.7263,"MEAN_ANOMALY":76.3445,"EPHEMERIS_TYPE":0,"CLASSIFICATION_TYPE":"U","NORAD_CAT_ID":59462,"ELEMENT_SET_NO":999,"REV_AT_EPOCH":7562,"BSTAR":4.2643455e-5,"MEAN_MOTION_DOT":9.11e-6,"MEAN_MOTION_DDOT":0},{"OBJECT_NAME":"STARLINK-31364","OBJECT_ID":"2024-068J","EPOCH":"2025-08-06T05:35:40.983936","MEAN_MOTION":15.27569853,"ECCENTRICITY":4.634e-5,"INCLINATION":43.0024,"RA_OF_ASC_NODE":167.6579,"ARG_OF_PERICENTER":163.6381,"MEAN_ANOMALY":196.4486,"EPHEMERIS_TYPE":0,"CLASSIFICATION_TYPE":"U","NORAD_CAT_ID":59463,"ELEMENT_SET_NO":999,"REV_AT_EPOCH":7561,"BSTAR":2.851852e-6,"MEAN_MOTION_DOT":-1.83e-6,"MEAN_MOTION_DDOT":0},{"OBJECT_NAME":"STARLINK-31597","OBJECT_ID":"2024-068K","EPOCH":"2025-08-06T13:49:48.822528","MEAN_MOTION":15.27576901,"ECCENTRICITY":0.00014237,"INCLINATION":43.0009,"RA_OF_ASC_NODE":169.3886,"ARG_OF_PERICENTER":263.7844,"MEAN_ANOMALY":96.2845,"EPHEMERIS_TYPE":0,"CLASSIFICATION_TYPE":"U","NORAD_CAT_ID":59464,"ELEMENT_SET_NO":999,"REV_AT_EPOCH":7557,"BSTAR":-2.7691588e-5,"MEAN_MOTION_DOT":-1.024e-5,"MEAN_MOTION_DDOT":0},{"OBJECT_NAME":"STARLINK-31621","OBJECT_ID":"2024-068L","EPOCH":"2025-08-06T13:59:04.388352","MEAN_MOTION":15.27575985,"ECCENTRICITY":6.927e-5,"INCLINATION":42.9998,"RA_OF_ASC_NODE":169.4557,"ARG_OF_PERICENTER":292.4514,"MEAN_ANOMALY":67.6265,"EPHEMERIS_TYPE":0,"CLASSIFICATION_TYPE":"U","NORAD_CAT_ID":59465,"ELEMENT_SET_NO":999,"REV_AT_EPOCH":7562,"BSTAR":-5.177381e-6,"MEAN_MOTION_DOT":-4.04e-6,"MEAN_MOTION_DDOT":0},{"OBJECT_NAME":"STARLINK-31462","OBJECT_ID":"2024-068M","EPOCH":"2025-08-06T13:38:42.641376","MEAN_MOTION":15.27574655,"ECCENTRICITY":9.782e-5,"INCLINATION":42.9999,"RA_OF_ASC_NODE":169.3148,"ARG_OF_PERICENTER":268.6679,"MEAN_ANOMALY":91.4061,"EPHEMERIS_TYPE":0,"CLASSIFICATION_TYPE":"U","NORAD_CAT_ID":59466,"ELEMENT_SET_NO":999,"REV_AT_EPOCH":7562,"BSTAR":-8.944572e-6,"MEAN_MOTION_DOT":-5.08e-6,"MEAN_MOTION_DDOT":0},{"OBJECT_NAME":"STARLINK-31592","OBJECT_ID":"2024-068N","EPOCH":"2025-08-05T14:43:23.069280","MEAN_MOTION":15.27570816,"ECCENTRICITY":0.0001231,"INCLINATION":43.0031,"RA_OF_ASC_NODE":175.0634,"ARG_OF_PERICENTER":259.1827,"MEAN_ANOMALY":100.8887,"EPHEMERIS_TYPE":0,"CLASSIFICATION_TYPE":"U","NORAD_CAT_ID":59467,"ELEMENT_SET_NO":999,"REV_AT_EPOCH":7547,"BSTAR":-2.6339e-5,"MEAN_MOTION_DOT":-9.87e-6,"MEAN_MOTION_DDOT":0},{"OBJECT_NAME":"STARLINK-31267","OBJECT_ID":"2024-068P","EPOCH":"2025-08-06T20:22:11.926560","MEAN_MOTION":15.28420915,"ECCENTRICITY":0.00011766,"INCLINATION":42.9973,"RA_OF_ASC_NODE":163.661,"ARG_OF_PERICENTER":234.8553,"MEAN_ANOMALY":125.2188,"EPHEMERIS_TYPE":0,"CLASSIFICATION_TYPE":"U","NORAD_CAT_ID":59468,"ELEMENT_SET_NO":999,"REV_AT_EPOCH":7571,"BSTAR":1.655413e-5,"MEAN_MOTION_DOT":2.03e-6,"MEAN_MOTION_DDOT":0},{"OBJECT_NAME":"STARLINK-31381","OBJECT_ID":"2024-068Q","EPOCH":"2025-08-06T13:57:55.073952","MEAN_MOTION":15.2757508,"ECCENTRICITY":0.0001114,"INCLINATION":43.0026,"RA_OF_ASC_NODE":165.9695,"ARG_OF_PERICENTER":278.5628,"MEAN_ANOMALY":81.5098,"EPHEMERIS_TYPE":0,"CLASSIFICATION_TYPE":"U","NORAD_CAT_ID":59469,"ELEMENT_SET_NO":999,"REV_AT_EPOCH":7566,"BSTAR":1.846914e-6,"MEAN_MOTION_DOT":-2.11e-6,"MEAN_MOTION_DDOT":0},{"OBJECT_NAME":"STARLINK-31546","OBJECT_ID":"2024-068R","EPOCH":"2025-08-06T21:20:56.533344","MEAN_MOTION":15.2757652,"ECCENTRICITY":0.00021142,"INCLINATION":43.001,"RA_OF_ASC_NODE":163.9815,"ARG_OF_PERICENTER":278.9127,"MEAN_ANOMALY":81.1485,"EPHEMERIS_TYPE":0,"CLASSIFICATION_TYPE":"U","NORAD_CAT_ID":59470,"ELEMENT_SET_NO":999,"REV_AT_EPOCH":7571,"BSTAR":2.182043e-5,"MEAN_MOTION_DOT":3.38e-6,"MEAN_MOTION_DDOT":0},{"OBJECT_NAME":"STARLINK-31575","OBJECT_ID":"2024-068S","EPOCH":"2025-08-06T21:32:02.653152","MEAN_MOTION":15.275801,"ECCENTRICITY":6.078e-5,"INCLINATION":43.0003,"RA_OF_ASC_NODE":164.0396,"ARG_OF_PERICENTER":269.1755,"MEAN_ANOMALY":90.9027,"EPHEMERIS_TYPE":0,"CLASSIFICATION_TYPE":"U","NORAD_CAT_ID":59471,"ELEMENT_SET_NO":999,"REV_AT_EPOCH":7571,"BSTAR":1.3829514e-5,"MEAN_MOTION_DOT":1.19e-6,"MEAN_MOTION_DDOT":0},{"OBJECT_NAME":"STARLINK-31610","OBJECT_ID":"2024-068U","EPOCH":"2025-08-06T13:27:36.510336","MEAN_MOTION":15.27572574,"ECCENTRICITY":0.00016357,"INCLINATION":42.9986,"RA_OF_ASC_NODE":169.2647,"ARG_OF_PERICENTER":263.7727,"MEAN_ANOMALY":96.2939,"EPHEMERIS_TYPE":0,"CLASSIFICATION_TYPE":"U","NORAD_CAT_ID":59473,"ELEMENT_SET_NO":999,"REV_AT_EPOCH":7562,"BSTAR":0.00035804563,"MEAN_MOTION_DOT":9.601e-5,"MEAN_MOTION_DDOT":0},{"OBJECT_NAME":"STARLINK-31581","OBJECT_ID":"2024-068V","EPOCH":"2025-08-06T21:17:54.948192","MEAN_MOTION":15.27615738,"ECCENTRICITY":6.651e-5,"INCLINATION":43.0026,"RA_OF_ASC_NODE":160.4809,"ARG_OF_PERICENTER":299.1621,"MEAN_ANOMALY":60.9164,"EPHEMERIS_TYPE":0,"CLASSIFICATION_TYPE":"U","NORAD_CAT_ID":59474,"ELEMENT_SET_NO":999,"REV_AT_EPOCH":7575,"BSTAR":-0.00033780211,"MEAN_MOTION_DOT":-9.555e-5,"MEAN_MOTION_DDOT":0}]
