STARLINK-31319          
1 59457U 24068C   25218.56647133 -.00000915  00000+0 -23730-4 0  9998
2 59457  43.0004 165.8637 0000630 292.3660  67.7125 15.27572125 75665
STARLINK-31625          
1 59458U 24068D   25218.58011631  .00000432  00000+0  25205-4 0  9990
2 59458  43.0024 169.4202 0001246 271.0094  89.0615 15.27588786 75622
STARLINK-31631          
1 59459U 24068E   25218.55233102 -.00000506  00000+0 -88725-5 0  9998
2 59459  42.9983 165.7499 0000947 252.6741 107.4007 15.27576409 75666
STARLINK-31620          
1 59460U 24068F   25218.90110959  .00000073  00000+0  12159-4 0  9997
2 59460  43.0026 164.0725 0001082 276.1802  83.8927 15.27577275 75718
STARLINK-31511          
1 59462U 24068H   25218.58653961  .00000911  00000+0  42643-4 0  9990
2 59462  43.0021 169.4712 0001288 283.7263  76.3445 15.27574878 75621
STARLINK-31364          
1 59463U 24068J   25218.23311324 -.00000183  00000+0  28519-5 0  9996
2 59463  43.0024 167.6579 0000463 163.6381 196.4486 15.27569853 75612
STARLINK-31597          
1 59464U 24068K   25218.57625952 -.00001024  00000+0 -27692-4 0  9995
2 59464  43.0009 169.3886 0001423 263.7844  96.2845 15.27576901 75572
STARLINK-31621          
1 59465U 24068L   25218.58268968 -.00000404  00000+0 -51774-5 0  9997
2 59465  42.9998 169.4557 0000692 292.4514  67.6265 15.27575985 75629
STARLINK-31462          
1 59466U 24068M   25218.56854909 -.00000508  00000+0 -89446-5 0  9994
2 59466  42.9999 169.3148 0000978 268.6679  91.4061 15.27574655 75622
STARLINK-31592          
1 59467U 24068N   25217.61346145 -.00000987  00000+0 -26339-4 0  9990
2 59467  43.0031 175.0634 0001231 259.1827 100.8887 15.27570816 75478
STARLINK-31267          
1 59468U 24068P   25218.84874915  .00000203  00000+0  16554-4 0  9995
2 59468  42.9973 163.6610 0001176 234.8553 125.2188 15.28420915 75710
STARLINK-31381          
1 59469U 24068Q   25218.58188743 -.00000211  00000+0  18469-5 0  9992
2 59469  43.0026 165.9695 0001114 278.5628  81.5098 15.27575080 75661
STARLINK-31546          
1 59470U 24068R   25218.88954321  .00000338  00000+0  21820-4 0  9993
2 59470  43.0010 163.9815 0002114 278.9127  81.1485 15.27576520 75719
STARLINK-31575          
1 59471U 24068S   25218.89725293  .00000119  00000+0  13830-4 0  9998
2 59471  43.0003 164.0396 0000607 269.1755  90.9027 15.27580100 75711
STARLINK-31610          
1 59473U 24068U   25218.56083924  .00009601  00000+0  35805-3 0  9992
2 59473  42.9986 169.2647 0001635 263.7727  96.2939 15.27572574 75625
STARLINK-31581          
1 59474U 24068V   25218.88744153 -.00009555  00000+0 -33780-3 0  9996
2 59474  43.0026 160.4809 0000665 299.1621  60.9164 15.27615738 75756
